[{"OBJECT_NAME":"STARLINK-4092","OBJECT_ID":"2022-062J","EPOCH":"2025-10-14T07:02:22.053984","MEAN_MOTION":15.08834532,"ECCENTRICITY":0.00014247,"INCLINATION":53.2187,"RA_OF_ASC_NODE":331.3116,"ARG_OF_PERICENTER":91.6814,"MEAN_ANOMALY":268.4342,"EPHEMERIS_TYPE":0,"CLASSIFICATION_TYPE":"U","NORAD_CAT_ID":52838,"ELEMENT_SET_NO":999,"REV_AT_EPOCH":18368,"BSTAR":-7.1605011e-5,"MEAN_MOTION_DOT":-1.427e-5,"MEAN_MOTION_DDOT":0},{"OBJECT_NAME":"STARLINK-4048","OBJECT_ID":"2022-062K","EPOCH":"2025-10-14T06:46:27.202656","MEAN_MOTION":15.0888125,"ECCENTRICITY":0.00017603,"INCLINATION":53.2166,"RA_OF_ASC_NODE":331.3713,"ARG_OF_PERICENTER":77.7031,"MEAN_ANOMALY":282.4158,"EPHEMERIS_TYPE":0,"CLASSIFICATION_TYPE":"U","NORAD_CAT_ID":52839,"ELEMENT_SET_NO":999,"REV_AT_EPOCH":18368,"BSTAR":-0.00065727409,"MEAN_MOTION_DOT":-0.00010745,"MEAN_MOTION_DDOT":0},{"OBJECT_NAME":"STARLINK-4049","OBJECT_ID":"2022-062L","EPOCH":"2025-10-14T07:07:41.438496","MEAN_MOTION":15.08838639,"ECCENTRICITY":0.00015779,"INCLINATION":53.2178,"RA_OF_ASC_NODE":331.4203,"ARG_OF_PERICENTER":102.5654,"MEAN_ANOMALY":257.5515,"EPHEMERIS_TYPE":0,"CLASSIFICATION_TYPE":"U","NORAD_CAT_ID":52840,"ELEMENT_SET_NO":999,"REV_AT_EPOCH":18368,"BSTAR":-2.258611e-6,"MEAN_MOTION_DOT":-3.24e-6,"MEAN_MOTION_DDOT":0},{"OBJECT_NAME":"STARLINK-4065","OBJECT_ID":"2022-062M","EPOCH":"2025-10-14T06:30:34.526016","MEAN_MOTION":15.08835701,"ECCENTRICITY":0.00013264,"INCLINATION":53.2163,"RA_OF_ASC_NODE":331.4208,"ARG_OF_PERICENTER":89.0066,"MEAN_ANOMALY":271.1078,"EPHEMERIS_TYPE":0,"CLASSIFICATION_TYPE":"U","NORAD_CAT_ID":52841,"ELEMENT_SET_NO":999,"REV_AT_EPOCH":18368,"BSTAR":2.8320689e-5,"MEAN_MOTION_DOT":1.63e-6,"MEAN_MOTION_DDOT":0},{"OBJECT_NAME":"STARLINK-4046","OBJECT_ID":"2022-062N","EPOCH":"2025-10-14T06:51:45.912384","MEAN_MOTION":15.08828844,"ECCENTRICITY":0.00014858,"INCLINATION":53.2189,"RA_OF_ASC_NODE":331.2792,"ARG_OF_PERICENTER":91.7889,"MEAN_ANOMALY":268.3274,"EPHEMERIS_TYPE":0,"CLASSIFICATION_TYPE":"U","NORAD_CAT_ID":52842,"ELEMENT_SET_NO":999,"REV_AT_EPOCH":18368,"BSTAR":-4.4158062e-5,"MEAN_MOTION_DOT":-9.9e-6,"MEAN_MOTION_DDOT":0},{"OBJECT_NAME":"STARLINK-4188","OBJECT_ID":"2022-062P","EPOCH":"2025-10-14T06:19:58.420704","MEAN_MOTION":15.08837922,"ECCENTRICITY":0.00014932,"INCLINATION":53.2175,"RA_OF_ASC_NODE":331.4515,"ARG_OF_PERICENTER":89.0735,"MEAN_ANOMALY":271.0429,"EPHEMERIS_TYPE":0,"CLASSIFICATION_TYPE":"U","NORAD_CAT_ID":52843,"ELEMENT_SET_NO":999,"REV_AT_EPOCH":18368,"BSTAR":1.9960897e-5,"MEAN_MOTION_DOT":3.0e-7,"MEAN_MOTION_DDOT":0},{"OBJECT_NAME":"STARLINK-4208","OBJECT_ID":"2022-062Q","EPOCH":"2025-10-14T06:41:10.270176","MEAN_MOTION":15.08834759,"ECCENTRICITY":0.00016127,"INCLINATION":53.2173,"RA_OF_ASC_NODE":331.3874,"ARG_OF_PERICENTER":102.5821,"MEAN_ANOMALY":257.5351,"EPHEMERIS_TYPE":0,"CLASSIFICATION_TYPE":"U","NORAD_CAT_ID":52844,"ELEMENT_SET_NO":999,"REV_AT_EPOCH":18368,"BSTAR":-6.0220308e-5,"MEAN_MOTION_DOT":-1.246e-5,"MEAN_MOTION_DDOT":0},{"OBJECT_NAME":"STARLINK-4168","OBJECT_ID":"2022-062R","EPOCH":"2025-10-14T06:25:17.165856","MEAN_MOTION":15.08843061,"ECCENTRICITY":0.00014834,"INCLINATION":53.2176,"RA_OF_ASC_NODE":331.5031,"ARG_OF_PERICENTER":97.7008,"MEAN_ANOMALY":262.4153,"EPHEMERIS_TYPE":0,"CLASSIFICATION_TYPE":"U","NORAD_CAT_ID":52845,"ELEMENT_SET_NO":999,"REV_AT_EPOCH":18368,"BSTAR":-7.1959183e-5,"MEAN_MOTION_DOT":-1.433e-5,"MEAN_MOTION_DDOT":0},{"OBJECT_NAME":"STARLINK-4212","OBJECT_ID":"2022-062S","EPOCH":"2025-10-14T06:26:39.451488","MEAN_MOTION":15.08843086,"ECCENTRICITY":0.00015721,"INCLINATION":53.2164,"RA_OF_ASC_NODE":331.4415,"ARG_OF_PERICENTER":96.1086,"MEAN_ANOMALY":264.0085,"EPHEMERIS_TYPE":0,"CLASSIFICATION_TYPE":"U","NORAD_CAT_ID":52846,"ELEMENT_SET_NO":999,"REV_AT_EPOCH":18368,"BSTAR":-9.6920814e-5,"MEAN_MOTION_DOT":-1.83e-5,"MEAN_MOTION_DDOT":0},{"OBJECT_NAME":"STARLINK-4206","OBJECT_ID":"2022-062T","EPOCH":"2025-10-14T07:44:45.847968","MEAN_MOTION":15.08836493,"ECCENTRICITY":0.00014912,"INCLINATION":53.2171,"RA_OF_ASC_NODE":331.189,"ARG_OF_PERICENTER":86.7561,"MEAN_ANOMALY":273.3602,"EPHEMERIS_TYPE":0,"CLASSIFICATION_TYPE":"U","NORAD_CAT_ID":52847,"ELEMENT_SET_NO":999,"REV_AT_EPOCH":18369,"BSTAR":7.6196352e-5,"MEAN_MOTION_DOT":9.25e-6,"MEAN_MOTION_DDOT":0},{"OBJECT_NAME":"STARLINK-4202","OBJECT_ID":"2022-062U","EPOCH":"2025-10-14T06:35:52.251648","MEAN_MOTION":15.08839146,"ECCENTRICITY":0.00015703,"INCLINATION":53.2187,"RA_OF_ASC_NODE":331.4033,"ARG_OF_PERICENTER":100.4605,"MEAN_ANOMALY":259.6564,"EPHEMERIS_TYPE":0,"CLASSIFICATION_TYPE":"U","NORAD_CAT_ID":52848,"ELEMENT_SET_NO":999,"REV_AT_EPOCH":18368,"BSTAR":2.0240464e-5,"MEAN_MOTION_DOT":3.4e-7,"MEAN_MOTION_DDOT":0},{"OBJECT_NAME":"STARLINK-4197","OBJECT_ID":"2022-062V","EPOCH":"2025-10-14T07:35:29.153760","MEAN_MOTION":15.08837412,"ECCENTRICITY":0.0001659,"INCLINATION":53.2181,"RA_OF_ASC_NODE":321.2151,"ARG_OF_PERICENTER":92.4628,"MEAN_ANOMALY":267.6554,"EPHEMERIS_TYPE":0,"CLASSIFICATION_TYPE":"U","NORAD_CAT_ID":52849,"ELEMENT_SET_NO":999,"REV_AT_EPOCH":18382,"BSTAR":-3.2333156e-5,"MEAN_MOTION_DOT":-8.03e-6,"MEAN_MOTION_DDOT":0},{"OBJECT_NAME":"STARLINK-4187","OBJECT_ID":"2022-062W","EPOCH":"2025-10-14T07:03:49.069152","MEAN_MOTION":15.08830137,"ECCENTRICITY":0.00013011,"INCLINATION":53.2182,"RA_OF_ASC_NODE":331.6729,"ARG_OF_PERICENTER":92.4935,"MEAN_ANOMALY":267.6206,"EPHEMERIS_TYPE":0,"CLASSIFICATION_TYPE":"U","NORAD_CAT_ID":52850,"ELEMENT_SET_NO":999,"REV_AT_EPOCH":18368,"BSTAR":-4.9418306e-5,"MEAN_MOTION_DOT":-1.074e-5,"MEAN_MOTION_DDOT":0},{"OBJECT_NAME":"STARLINK-3809","OBJECT_ID":"2022-062X","EPOCH":"2025-10-14T07:30:11.269152","MEAN_MOTION":15.0883646,"ECCENTRICITY":0.00013596,"INCLINATION":53.2169,"RA_OF_ASC_NODE":321.2339,"ARG_OF_PERICENTER":94.0627,"MEAN_ANOMALY":266.0521,"EPHEMERIS_TYPE":0,"CLASSIFICATION_TYPE":"U","NORAD_CAT_ID":52851,"ELEMENT_SET_NO":999,"REV_AT_EPOCH":18382,"BSTAR":-4.315623e-6,"MEAN_MOTION_DOT":-3.57e-6,"MEAN_MOTION_DDOT":0},{"OBJECT_NAME":"STARLINK-4184","OBJECT_ID":"2022-062Y","EPOCH":"2025-10-14T07:40:47.288064","MEAN_MOTION":15.08841622,"ECCENTRICITY":0.0001343,"INCLINATION":53.2166,"RA_OF_ASC_NODE":321.2007,"ARG_OF_PERICENTER":84.3332,"MEAN_ANOMALY":275.7813,"EPHEMERIS_TYPE":0,"CLASSIFICATION_TYPE":"U","NORAD_CAT_ID":52852,"ELEMENT_SET_NO":999,"REV_AT_EPOCH":18382,"BSTAR":-8.516279e-5,"MEAN_MOTION_DOT":-1.643e-5,"MEAN_MOTION_DDOT":0},{"OBJECT_NAME":"STARLINK-4189","OBJECT_ID":"2022-062Z","EPOCH":"2025-10-14T07:15:39.604608","MEAN_MOTION":15.08832269,"ECCENTRICITY":0.00017151,"INCLINATION":53.2167,"RA_OF_ASC_NODE":321.2501,"ARG_OF_PERICENTER":98.5173,"MEAN_ANOMALY":261.6013,"EPHEMERIS_TYPE":0,"CLASSIFICATION_TYPE":"U","NORAD_CAT_ID":52853,"ELEMENT_SET_NO":999,"REV_AT_EPOCH":18382,"BSTAR":-0.00014275274,"MEAN_MOTION_DOT":-2.559e-5,"MEAN_MOTION_DDOT":0}]
