STARLINK-4092           
1 52838U 22062J   25287.29331081 -.00001427  00000+0 -71605-4 0  9997
2 52838  53.2187 331.3116 0001424  91.6814 268.4342 15.08834532183686
STARLINK-4048           
1 52839U 22062K   25287.28225929 -.00010745  00000+0 -65727-3 0  9990
2 52839  53.2166 331.3713 0001760  77.7031 282.4158 15.08881250183686
STARLINK-4049           
1 52840U 22062L   25287.29700739 -.00000324  00000+0 -22586-5 0  9990
2 52840  53.2178 331.4203 0001577 102.5654 257.5515 15.08838639183683
STARLINK-4065           
1 52841U 22062M   25287.27123294  .00000163  00000+0  28321-4 0  9995
2 52841  53.2163 331.4208 0001326  89.0066 271.1078 15.08835701183684
STARLINK-4046           
1 52842U 22062N   25287.28594806 -.00000990  00000+0 -44158-4 0  9994
2 52842  53.2189 331.2792 0001485  91.7889 268.3274 15.08828844183684
STARLINK-4188           
1 52843U 22062P   25287.26387061  .00000030  00000+0  19961-4 0  9993
2 52843  53.2175 331.4515 0001493  89.0735 271.0429 15.08837922183684
STARLINK-4208           
1 52844U 22062Q   25287.27859109 -.00001246  00000+0 -60220-4 0  9998
2 52844  53.2173 331.3874 0001612 102.5821 257.5351 15.08834759183688
STARLINK-4168           
1 52845U 22062R   25287.26755979 -.00001433  00000+0 -71959-4 0  9997
2 52845  53.2176 331.5031 0001483  97.7008 262.4153 15.08843061183688
STARLINK-4212           
1 52846U 22062S   25287.26851217 -.00001830  00000+0 -96921-4 0  9997
2 52846  53.2164 331.4415 0001572  96.1086 264.0085 15.08843086183688
STARLINK-4206           
1 52847U 22062T   25287.32275287  .00000925  00000+0  76196-4 0  9996
2 52847  53.2171 331.1890 0001491  86.7561 273.3602 15.08836493183697
STARLINK-4202           
1 52848U 22062U   25287.27491032  .00000034  00000+0  20240-4 0  9999
2 52848  53.2187 331.4033 0001570 100.4605 259.6564 15.08839146183689
STARLINK-4197           
1 52849U 22062V   25287.31630965 -.00000803  00000+0 -32333-4 0  9997
2 52849  53.2181 321.2151 0001659  92.4628 267.6554 15.08837412183823
STARLINK-4187           
1 52850U 22062W   25287.29431793 -.00001074  00000+0 -49418-4 0  9997
2 52850  53.2182 331.6729 0001301  92.4935 267.6206 15.08830137183682
STARLINK-3809           
1 52851U 22062X   25287.31263043 -.00000357  00000+0 -43156-5 0  9999
2 52851  53.2169 321.2339 0001359  94.0627 266.0521 15.08836460183823
STARLINK-4184           
1 52852U 22062Y   25287.31999176 -.00001643  00000+0 -85163-4 0  9995
2 52852  53.2166 321.2007 0001343  84.3332 275.7813 15.08841622183828
STARLINK-4189           
1 52853U 22062Z   25287.30254172 -.00002559  00000+0 -14275-3 0  9997
2 52853  53.2167 321.2501 0001715  98.5173 261.6013 15.08832269183825
